[{"OBJECT_NAME":"STARLINK-2666","OBJECT_ID":"2021-044AE","EPOCH":"2026-03-09T09:41:56.845824","MEAN_MOTION":15.06412995,"ECCENTRICITY":0.00014416,"INCLINATION":53.0551,"RA_OF_ASC_NODE":113.3735,"ARG_OF_PERICENTER":97.7439,"MEAN_ANOMALY":262.3713,"EPHEMERIS_TYPE":0,"CLASSIFICATION_TYPE":"U","NORAD_CAT_ID":48666,"ELEMENT_SET_NO":999,"REV_AT_EPOCH":26379,"BSTAR":8.8652646e-5,"MEAN_MOTION_DOT":1.04e-5,"MEAN_MOTION_DDOT":0},{"OBJECT_NAME":"ARIANE 1 DEB","OBJECT_ID":"1985-056C","EPOCH":"2026-03-09T16:04:19.760160","MEAN_MOTION":3.23404517,"ECCENTRICITY":0.64626337,"INCLINATION":8.4174,"RA_OF_ASC_NODE":296.5513,"ARG_OF_PERICENTER":347.1205,"MEAN_ANOMALY":2.1881,"EPHEMERIS_TYPE":0,"CLASSIFICATION_TYPE":"U","NORAD_CAT_ID":17255,"ELEMENT_SET_NO":999,"REV_AT_EPOCH":34240,"BSTAR":0.0076434869,"MEAN_MOTION_DOT":3.012e-5,"MEAN_MOTION_DDOT":0}]
